NORAD_CAT_ID,OBJECT_NAME,OBJECT_TYPE,EPOCH,MEAN_MOTION,ECCENTRICITY,INCLINATION,RA_OF_ASC_NODE,ARG_OF_PERICENTER,MEAN_ANOMALY,BSTAR,MEAN_MOTION_DOT,MEAN_MOTION_DDOT,TLE_LINE0,TLE_LINE1,TLE_LINE2,SEMIMAJOR_AXIS,PERIOD,APOGEE,PERIGEE,DECAYED
54198.0,STARLINK-5246,PAYLOAD,2024-05-11 08:16:08,15.08874367,0.0001462,53.2172,109.7903,103.8566,256.2589,0.00031701,4.766e-05,0.0,0 STARLINK-5246,1 54198U 22141AT  24132.34454051  .00004766  00000-0  31701-3 0  9993,2 54198  53.2172 109.7903 0001462 103.8566 256.2589 15.08874367 85481,6917.775,95.435,540.652,538.629,0.0
54198.0,STARLINK-5246,PAYLOAD,2024-05-11 22:34:36,15.08856721,0.0001713,53.2172,107.1102,110.448,249.6696,0.00018452,2.651e-05,0.0,0 STARLINK-5246,1 54198U 22141AT  24132.94070298  .00002651  00000-0  18452-3 0  9995,2 54198  53.2172 107.1102 0001713 110.4480 249.6696 15.08856721 85346,6917.829,95.436,540.879,538.509,0.0
54198.0,STARLINK-5246,PAYLOAD,2024-05-12 04:56:13,15.0877289,0.0001985,53.216,105.9257,88.1473,271.9746,-0.0010062,-0.00016237,0.0,0 STARLINK-5246,1 54198U 22141AT  24133.20570879 -.00016237  00000-0 -10062-2 0  9990,2 54198  53.2160 105.9257 0001985  88.1473 271.9746 15.08772890 85612,6918.086,95.442,541.324,538.577,0.0
54198.0,STARLINK-5246,PAYLOAD,2024-05-12 08:07:00,15.08767058,0.0001773,53.2169,105.3305,95.1902,264.9292,-0.00098288,-0.00015865,0.0,0 STARLINK-5246,1 54198U 22141AT  24133.33820223 -.00015865  00000-0 -98288-3 0  9998,2 54198  53.2169 105.3305 0001773  95.1902 264.9292 15.08767058 85639,6918.103,95.442,541.195,538.742,0.0
54198.0,STARLINK-5246,PAYLOAD,2024-05-12 22:25:28,15.08794385,0.0001691,53.217,102.6545,98.5197,261.5987,-0.00040259,-6.682e-05,0.0,0 STARLINK-5246,1 54198U 22141AT  24133.93436206 -.00006682  00000-0 -40259-3 0  9990,2 54198  53.2170 102.6545 0001691  98.5197 261.5987 15.08794385 85490,6918.02,95.44,541.055,538.715,0.0
54198.0,STARLINK-5246,PAYLOAD,2024-05-13 04:47:00,15.08823701,0.0001732,53.2168,101.4668,97.7931,262.3258,7.3958e-05,8.89e-06,0.0,0 STARLINK-5246,1 54198U 22141AT  24134.19931311  .00000889  00000-0  73958-4 0  9990,2 54198  53.2168 101.4668 0001732  97.7931 262.3258 15.08823701 85768,6917.93,95.439,540.993,538.597,0.0
54198.0,STARLINK-5246,PAYLOAD,2024-05-13 14:19:19,15.08837594,0.0001665,53.2173,99.6824,99.8585,260.2596,6.2784e-05,7.11e-06,0.0,0 STARLINK-5246,1 54198U 22141AT  24134.59674852  .00000711  00000-0  62784-4 0  9997,2 54198  53.2173  99.6824 0001665  99.8585 260.2596 15.08837594 85823,6917.888,95.438,540.905,538.601,0.0
54198.0,STARLINK-5246,PAYLOAD,2024-05-13 22:16:15,15.08834047,0.0001384,53.2166,98.1928,94.926,265.189,0.0003877,5.887e-05,0.0,0 STARLINK-5246,1 54198U 22141AT  24134.92795298  .00005887  00000-0  38770-3 0  9998,2 54198  53.2166  98.1928 0001384  94.9260 265.1890 15.08834047 85649,6917.899,95.438,540.721,538.806,0.0
54198.0,STARLINK-5246,PAYLOAD,2024-05-14 04:37:46,15.08840402,0.0001263,53.2173,97.0055,91.0662,269.0475,0.0002883,4.303e-05,0.0,0 STARLINK-5246,1 54198U 22141AT  24135.19290163  .00004303  00000-0  28830-3 0  9997,2 54198  53.2173  97.0055 0001263  91.0662 269.0475 15.08840402 85910,6917.879,95.438,540.618,538.87,0.0
54198.0,STARLINK-5246,PAYLOAD,2024-05-14 14:10:06,15.08838002,0.000159,53.217,95.2213,103.115,257.0019,0.00090329,0.00014116,0.0,0 STARLINK-5246,1 54198U 22141AT  24135.59035671  .00014116  00000-0  90329-3 0  9997,2 54198  53.2170  95.2213 0001590 103.1150 257.0019 15.08838002 85973,6917.886,95.438,540.851,538.652,0.0
54198.0,STARLINK-5246,PAYLOAD,2024-05-15 04:28:33,15.08874586,0.0001615,53.2169,92.5451,107.7561,252.3607,0.00046799,7.175e-05,0.0,0 STARLINK-5246,1 54198U 22141AT  24136.18649316  .00007175  00000-0  46799-3 0  9999,2 54198  53.2169  92.5451 0001615 107.7561 252.3607 15.08874586 86068,6917.775,95.435,540.757,538.522,0.0
54198.0,STARLINK-5246,PAYLOAD,2024-05-15 06:03:55,15.0888112,0.0001666,53.217,92.248,108.8121,251.3052,0.00059077,9.137e-05,0.0,0 STARLINK-5246,1 54198U 22141AT  24136.25273020  .00009137  00000-0  59077-3 0  9995,2 54198  53.2170  92.2480 0001666 108.8121 251.3052 15.08881120 85849,6917.755,95.435,540.772,538.467,0.0
54198.0,STARLINK-5246,PAYLOAD,2024-05-16 04:19:18,15.0885742,0.0001481,53.2152,88.0823,132.4698,227.6419,-0.00012435,-2.267e-05,0.0,0 STARLINK-5246,1 54198U 22141AT  24137.18008070 -.00002267  00000-0 -12435-3 0  9995,2 54198  53.2152  88.0823 0001481 132.4698 227.6419 15.08857420 86211,6917.827,95.436,540.717,538.668,0.0
54198.0,STARLINK-5246,PAYLOAD,2024-05-16 20:13:10,15.08847652,0.000157,53.217,85.1112,89.997,270.1202,-7.4611e-06,-4.07e-06,0.0,0 STARLINK-5246,1 54198U 22141AT  24137.84248517 -.00000407  00000-0 -74611-5 0  9990,2 54198  53.2170  85.1112 0001570  89.9970 270.1202 15.08847652 86318,6917.857,95.437,540.808,538.636,0.0
54198.0,STARLINK-5246,PAYLOAD,2024-05-17 13:42:24,15.08851478,0.0001478,53.2172,81.8399,102.318,257.7978,0.00020499,2.977e-05,0.0,0 STARLINK-5246,1 54198U 22141AT  24138.57112213  .00002977  00000-0  20499-3 0  9999,2 54198  53.2172  81.8399 0001478 102.3180 257.7978 15.08851478 86198,6917.845,95.437,540.733,538.688,0.0
54198.0,STARLINK-5246,PAYLOAD,2024-05-18 02:25:31,15.08825515,0.0001169,53.2159,79.4584,108.1564,251.9555,-5.9652e-05,-1.237e-05,0.0,0 STARLINK-5246,1 54198U 22141AT  24139.10105609 -.00001237  00000-0 -59652-4 0  9994,2 54198  53.2159  79.4584 0001169 108.1564 251.9555 15.08825515 86504,6917.925,95.438,540.598,538.981,0.0
54198.0,STARLINK-5246,PAYLOAD,2024-05-18 05:36:17,15.08845849,0.000142,53.2166,78.8646,98.3372,261.7781,0.00035637,5.389e-05,0.0,0 STARLINK-5246,1 54198U 22141AT  24139.23353171  .00005389  00000-0  35637-3 0  9993,2 54198  53.2166  78.8646 0001420  98.3372 261.7781 15.08845849 86525,6917.863,95.437,540.71,538.745,0.0
54198.0,STARLINK-5246,PAYLOAD,2024-05-19 02:16:18,15.08839048,0.0001295,53.2168,74.9989,88.187,271.927,0.00012426,1.69e-05,0.0,0 STARLINK-5246,1 54198U 22141AT  24140.09465559  .00001690  00000-0  12426-3 0  9995,2 54198  53.2168  74.9989 0001295  88.1870 271.9270 15.08839048 86658,6917.883,95.438,540.644,538.852,0.0
54198.0,STARLINK-5246,PAYLOAD,2024-05-19 05:27:04,15.08839847,0.0001295,53.2167,74.4031,90.1053,270.0087,0.00015004,2.101e-05,0.0,0 STARLINK-5246,1 54198U 22141AT  24140.22713547  .00002101  00000-0  15004-3 0  9996,2 54198  53.2167  74.4031 0001295  90.1053 270.0087 15.08839847 86446,6917.881,95.438,540.642,538.85,0.0
54198.0,STARLINK-5246,PAYLOAD,2024-05-20 02:07:05,15.08836774,0.0001273,53.2173,70.5368,97.3489,262.7648,7.4395e-05,8.96e-06,0.0,0 STARLINK-5246,1 54198U 22141AT  24141.08826030  .00000896  00000-0  74395-4 0  9991,2 54198  53.2173  70.5368 0001273  97.3489 262.7648 15.08836774 86808,6917.89,95.438,540.636,538.875,0.0
54198.0,STARLINK-5246,PAYLOAD,2024-05-21 01:57:53,15.08831679,0.0001383,53.2183,66.0764,100.6259,259.4889,5.7707e-05,6.3e-06,0.0,0 STARLINK-5246,1 54198U 22141AT  24142.08186644  .00000630  00000-0  57707-4 0  9996,2 54198  53.2183  66.0764 0001383 100.6259 259.4889 15.08831679 86959,6917.906,95.438,540.728,538.814,0.0
54198.0,STARLINK-5246,PAYLOAD,2024-05-21 22:37:53,15.08840312,0.0001158,53.2181,62.2158,84.3903,275.7221,9.4994e-05,1.224e-05,0.0,0 STARLINK-5246,1 54198U 22141AT  24142.94298269  .00001224  00000-0  94994-4 0  9997,2 54198  53.2181  62.2158 0001158  84.3903 275.7221 15.08840312 86850,6917.879,95.438,540.546,538.943,0.0
54198.0,STARLINK-5246,PAYLOAD,2024-05-22 03:24:02,15.08846854,0.0001249,53.2185,61.32,83.482,276.6314,0.00016362,2.318e-05,0.0,0 STARLINK-5246,1 54198U 22141AT  24143.14169738  .00002318  00000-0  16362-3 0  9995,2 54198  53.2185  61.3200 0001249  83.4820 276.6314 15.08846854 87111,6917.859,95.437,540.588,538.86,0.0
54198.0,STARLINK-5246,PAYLOAD,2024-05-22 04:59:25,15.088503,0.0001358,53.2181,61.0228,101.6275,258.487,0.00011073,1.475e-05,0.0,0 STARLINK-5246,1 54198U 22141AT  24143.20793571  .00001475  00000-0  11073-3 0  9997,2 54198  53.2181  61.0228 0001358 101.6275 258.4870 15.08850300 86892,6917.849,95.437,540.653,538.774,0.0
54198.0,STARLINK-5246,PAYLOAD,2024-05-23 03:14:50,15.08836068,0.0001319,53.2181,56.8577,103.9398,256.174,6.5859e-05,7.6e-06,0.0,0 STARLINK-5246,1 54198U 22141AT  24144.13530555  .00000760  00000-0  65859-4 0  9999,2 54198  53.2181  56.8577 0001319 103.9398 256.1740 15.08836068 87267,6917.892,95.438,540.67,538.845,0.0
54198.0,STARLINK-5246,PAYLOAD,2024-05-24 03:05:36,15.08852172,0.000144,53.2182,52.3974,111.317,248.7976,0.00015027,2.105e-05,0.0,0 STARLINK-5246,1 54198U 22141AT  24145.12889786  .00002105  00000-0  15027-3 0  9998,2 54198  53.2182  52.3974 0001440 111.3170 248.7976 15.08852172 87415,6917.843,95.437,540.704,538.712,0.0
54198.0,STARLINK-5246,PAYLOAD,2024-05-24 17:24:05,15.08847037,0.0001441,53.2188,49.7263,100.6788,259.4366,0.00024724,3.65e-05,0.0,0 STARLINK-5246,1 54198U 22141AT  24145.72506059  .00003650  00000-0  24724-3 0  9993,2 54198  53.2188  49.7263 0001441 100.6788 259.4366 15.08847037 87505,6917.859,95.437,540.721,538.727,0.0
54198.0,STARLINK-5246,PAYLOAD,2024-05-24 22:10:14,15.08842466,0.0001686,53.2184,48.8268,124.8218,235.2933,0.00010603,1.4e-05,0.0,0 STARLINK-5246,1 54198U 22141AT  24145.92378109  .00001400  00000-0  10603-3 0  9990,2 54198  53.2184  48.8268 0001686 124.8218 235.2933 15.08842466 87304,6917.873,95.437,540.904,538.571,0.0
54198.0,STARLINK-5246,PAYLOAD,2024-05-24 23:45:38,15.08840633,0.000107,53.2178,48.5334,88.2964,271.8151,0.00012242,1.661e-05,0.0,0 STARLINK-5246,1 54198U 22141AT  24145.99002437  .00001661  00000-0  12242-3 0  9995,2 54198  53.2178  48.5334 0001070  88.2964 271.8151 15.08840633 87544,6917.878,95.438,540.484,539.003,0.0
54198.0,STARLINK-5246,PAYLOAD,2024-05-25 10:53:20,15.08840984,0.0001229,53.2183,46.4524,103.3656,256.7473,8.4275e-05,1.054e-05,0.0,0 STARLINK-5246,1 54198U 22141AT  24146.45370397  .00001054  00000-0  84275-4 0  9992,2 54198  53.2183  46.4524 0001229 103.3656 256.7473 15.08840984 87381,6917.877,95.437,540.593,538.892,0.0
